{
  "type": "FeatureCollection",
  "features": [
    {
      "type": "Feature",
      "properties": {
        "norad_id": 33791,
        "name": "COSMOS 2251 DEB",
        "group": "cosmos-2251-debris",
        "lat": -35.15255816259275,
        "lon": -120.62552104981677,
        "alt_km": 735.2176284362886,
        "timestamp": "2025-12-07T03:52:32.894951+00:00",
        "meta_object_name": "COSMOS 2251 DEB",
        "meta_object_id": "1993-036AG",
        "meta_epoch": "2025-12-06T15:46:35.434848",
        "meta_mean_motion": 14.43076931,
        "meta_eccentricity": 0.00305772,
        "meta_inclination": 74.1758,
        "meta_ra_of_asc_node": 48.782,
        "meta_arg_of_pericenter": 246.9725,
        "meta_mean_anomaly": 231.8952,
        "meta_ephemeris_type": 0,
        "meta_classification_type": "U",
        "meta_norad_cat_id": 33791,
        "meta_element_set_no": 999,
        "meta_rev_at_epoch": 87964,
        "meta_bstar": 0.0012496888,
        "meta_mean_motion_dot": 4.191e-05,
        "meta_mean_motion_ddot": 0,
        "tle_line1": "1 33791U 93036AG  25340.65735457  .00004191  00000+0  12497-2 0  9999",
        "tle_line2": "2 33791  74.1758  48.7820 0030577 246.9725 231.8952 14.43076931879645"
      },
      "geometry": {
        "type": "Point",
        "coordinates": [
          -120.62552104981677,
          -35.15255816259275
        ]
      }
    },
    {
      "type": "Feature",
      "properties": {
        "norad_id": 33792,
        "name": "COSMOS 2251 DEB",
        "group": "cosmos-2251-debris",
        "lat": 53.66153854065974,
        "lon": 17.368282284148343,
        "alt_km": 763.910630118603,
        "timestamp": "2025-12-07T03:52:32.894962+00:00",
        "meta_object_name": "COSMOS 2251 DEB",
        "meta_object_id": "1993-036AH",
        "meta_epoch": "2025-12-06T12:16:23.996640",
        "meta_mean_motion": 13.45809807,
        "meta_eccentricity": 0.04268512,
        "meta_inclination": 73.901,
        "meta_ra_of_asc_node": 355.2906,
        "meta_arg_of_pericenter": 61.1056,
        "meta_mean_anomaly": 87.6272,
        "meta_ephemeris_type": 0,
        "meta_classification_type": "U",
        "meta_norad_cat_id": 33792,
        "meta_element_set_no": 999,
        "meta_rev_at_epoch": 82358,
        "meta_bstar": 0.0011554886,
        "meta_mean_motion_dot": 1.177e-05,
        "meta_mean_motion_ddot": 0,
        "tle_line1": "1 33792U 93036AH  25340.51138885  .00001177  00000+0  11555-2 0  9992",
        "tle_line2": "2 33792  73.9010 355.2906 0426851  61.1056  87.6272 13.45809807823584"
      },
      "geometry": {
        "type": "Point",
        "coordinates": [
          17.368282284148343,
          53.66153854065974
        ]
      }
    },
    {
      "type": "Feature",
      "properties": {
        "norad_id": 33793,
        "name": "COSMOS 2251 DEB",
        "group": "cosmos-2251-debris",
        "lat": 47.639092879708556,
        "lon": 178.42072240750304,
        "alt_km": 803.261060854672,
        "timestamp": "2025-12-07T03:52:32.894973+00:00",
        "meta_object_name": "COSMOS 2251 DEB",
        "meta_object_id": "1993-036AJ",
        "meta_epoch": "2025-12-06T14:28:43.570848",
        "meta_mean_motion": 14.276921,
        "meta_eccentricity": 0.0078288,
        "meta_inclination": 73.9803,
        "meta_ra_of_asc_node": 161.07,
        "meta_arg_of_pericenter": 312.396,
        "meta_mean_anomaly": 109.1428,
        "meta_ephemeris_type": 0,
        "meta_classification_type": "U",
        "meta_norad_cat_id": 33793,
        "meta_element_set_no": 999,
        "meta_rev_at_epoch": 87119,
        "meta_bstar": 0.0011528006,
        "meta_mean_motion_dot": 2.911e-05,
        "meta_mean_motion_ddot": 0,
        "tle_line1": "1 33793U 93036AJ  25340.60328207  .00002911  00000+0  11528-2 0  9999",
        "tle_line2": "2 33793  73.9803 161.0700 0078288 312.3960 109.1428 14.27692100871192"
      },
      "geometry": {
        "type": "Point",
        "coordinates": [
          178.42072240750304,
          47.639092879708556
        ]
      }
    },
    {
      "type": "Feature",
      "properties": {
        "norad_id": 33795,
        "name": "COSMOS 2251 DEB",
        "group": "cosmos-2251-debris",
        "lat": -54.960486261547736,
        "lon": -67.72919234889639,
        "alt_km": 547.8613403676027,
        "timestamp": "2025-12-07T03:52:32.894984+00:00",
        "meta_object_name": "COSMOS 2251 DEB",
        "meta_object_id": "1993-036AL",
        "meta_epoch": "2025-12-06T16:13:14.911392",
        "meta_mean_motion": 15.05158673,
        "meta_eccentricity": 0.0032507,
        "meta_inclination": 74.0332,
        "meta_ra_of_asc_node": 89.1673,
        "meta_arg_of_pericenter": 174.9141,
        "meta_mean_anomaly": 312.7772,
        "meta_ephemeris_type": 0,
        "meta_classification_type": "U",
        "meta_norad_cat_id": 33795,
        "meta_element_set_no": 999,
        "meta_rev_at_epoch": 89930,
        "meta_bstar": 0.0025412455,
        "meta_mean_motion_dot": 0.000368,
        "meta_mean_motion_ddot": 0,
        "tle_line1": "1 33795U 93036AL  25340.67586703  .00036800  00000+0  25412-2 0  9996",
        "tle_line2": "2 33795  74.0332  89.1673 0032507 174.9141 312.7772 15.05158673899305"
      },
      "geometry": {
        "type": "Point",
        "coordinates": [
          -67.72919234889639,
          -54.960486261547736
        ]
      }
    },
    {
      "type": "Feature",
      "properties": {
        "norad_id": 33797,
        "name": "COSMOS 2251 DEB",
        "group": "cosmos-2251-debris",
        "lat": -63.70535338275403,
        "lon": 10.19175503105944,
        "alt_km": 746.5299503912738,
        "timestamp": "2025-12-07T03:52:32.894995+00:00",
        "meta_object_name": "COSMOS 2251 DEB",
        "meta_object_id": "1993-036AN",
        "meta_epoch": "2025-12-06T15:34:54.439680",
        "meta_mean_motion": 14.57811247,
        "meta_eccentricity": 0.0061005,
        "meta_inclination": 74.0485,
        "meta_ra_of_asc_node": 46.5344,
        "meta_arg_of_pericenter": 136.2225,
        "meta_mean_anomaly": 347.462,
        "meta_ephemeris_type": 0,
        "meta_classification_type": "U",
        "meta_norad_cat_id": 33797,
        "meta_element_set_no": 999,
        "meta_rev_at_epoch": 88896,
        "meta_bstar": 0.00085580397,
        "meta_mean_motion_dot": 3.99e-05,
        "meta_mean_motion_ddot": 0,
        "tle_line1": "1 33797U 93036AN  25340.64924120  .00003990  00000+0  85580-3 0  9991",
        "tle_line2": "2 33797  74.0485  46.5344 0061005 136.2225 347.4620 14.57811247888963"
      },
      "geometry": {
        "type": "Point",
        "coordinates": [
          10.19175503105944,
          -63.70535338275403
        ]
      }
    },
    {
      "type": "Feature",
      "properties": {
        "norad_id": 33798,
        "name": "COSMOS 2251 DEB",
        "group": "cosmos-2251-debris",
        "lat": 68.70602330690639,
        "lon": -166.41144284788564,
        "alt_km": 800.4439423686044,
        "timestamp": "2025-12-07T03:52:32.895006+00:00",
        "meta_object_name": "COSMOS 2251 DEB",
        "meta_object_id": "1993-036AP",
        "meta_epoch": "2025-12-06T11:02:33.379584",
        "meta_mean_motion": 14.44602815,
        "meta_eccentricity": 0.009251,
        "meta_inclination": 74.0277,
        "meta_ra_of_asc_node": 147.6018,
        "meta_arg_of_pericenter": 270.331,
        "meta_mean_anomaly": 119.0768,
        "meta_ephemeris_type": 0,
        "meta_classification_type": "U",
        "meta_norad_cat_id": 33798,
        "meta_element_set_no": 999,
        "meta_rev_at_epoch": 88503,
        "meta_bstar": 0.00030083035,
        "meta_mean_motion_dot": 1.067e-05,
        "meta_mean_motion_ddot": 0,
        "tle_line1": "1 33798U 93036AP  25340.46010856  .00001067  00000+0  30083-3 0  9995",
        "tle_line2": "2 33798  74.0277 147.6018 0092510 270.3310 119.0768 14.44602815885030"
      },
      "geometry": {
        "type": "Point",
        "coordinates": [
          -166.41144284788564,
          68.70602330690639
        ]
      }
    },
    {
      "type": "Feature",
      "properties": {
        "norad_id": 33799,
        "name": "COSMOS 2251 DEB",
        "group": "cosmos-2251-debris",
        "lat": -20.307877262546256,
        "lon": 86.68807475246017,
        "alt_km": 652.7290489267416,
        "timestamp": "2025-12-07T03:52:32.895017+00:00",
        "meta_object_name": "COSMOS 2251 DEB",
        "meta_object_id": "1993-036AQ",
        "meta_epoch": "2025-12-06T06:58:39.054720",
        "meta_mean_motion": 14.7942159,
        "meta_eccentricity": 0.00241041,
        "meta_inclination": 74.0324,
        "meta_ra_of_asc_node": 94.4838,
        "meta_arg_of_pericenter": 167.2959,
        "meta_mean_anomaly": 215.9123,
        "meta_ephemeris_type": 0,
        "meta_classification_type": "U",
        "meta_norad_cat_id": 33799,
        "meta_element_set_no": 999,
        "meta_rev_at_epoch": 88716,
        "meta_bstar": 0.0022146826,
        "meta_mean_motion_dot": 0.00016616,
        "meta_mean_motion_ddot": 0,
        "tle_line1": "1 33799U 93036AQ  25340.29072980  .00016616  00000+0  22147-2 0  9990",
        "tle_line2": "2 33799  74.0324  94.4838 0024104 167.2959 215.9123 14.79421590887164"
      },
      "geometry": {
        "type": "Point",
        "coordinates": [
          86.68807475246017,
          -20.307877262546256
        ]
      }
    }
  ]
}